STARLINK-34678          
1 65443U 25194K   25336.18299381  .00006200  00000+0  43345-3 0  9992
2 65443  97.6034 188.2480 0002151  86.0753 274.0720 15.05657235 14974
STARLINK-35049          
1 65444U 25194L   25336.16917282  .00024709  00000+0  17102-2 0  9993
2 65444  97.6003 188.2628 0001897  93.9169 266.2274 15.05660331 14977
STARLINK-35029          
1 65445U 25194M   25336.16361456  .00003534  00000+0  24897-3 0  9993
2 65445  97.6011 188.2702 0002270  79.6931 280.4552 15.05652194 14979
STARLINK-34991          
1 65446U 25194N   25336.15529716  .00002778  00000+0  19659-3 0  9997
2 65446  97.6009 188.2849 0001988  83.7071 276.4382 15.05658892 14972
STARLINK-34920          
1 65447U 25194P   25336.14423436  .00002598  00000+0  18417-3 0  9990
2 65447  97.6029 188.2989 0001971  77.8213 282.3235 15.05651656 14978
STARLINK-35030          
1 65448U 25194Q   25336.17468638  .00015814  00000+0  10966-2 0  9992
2 65448  97.6023 188.2569 0002425  81.5705 278.5797 15.05687930 14974
STARLINK-35009          
1 65449U 25194R   25336.26886674  .00015654  00000+0  10865-2 0  9997
2 65449  97.6041 188.4417 0001849  72.6639 287.4790 15.05657374 14998
STARLINK-34970          
1 65450U 25194S   25336.19683622  .00005383  00000+0  37691-3 0  9994
2 65450  97.6039 188.2294 0002305  85.6425 274.5065 15.05656763 14974
STARLINK-35039          
1 65451U 25194T   25336.16638325  .00007529  00000+0  52536-3 0  9991
2 65451  97.6010 188.2670 0001758  82.5276 277.6150 15.05654256 14977
STARLINK-35084          
1 65452U 25194U   25336.18022658  .00004006  00000+0  28165-3 0  9998
2 65452  97.6029 188.2522 0002760  83.0178 277.1363 15.05653256 14975
STARLINK-34988          
1 65453U 25194V   25336.27304036 -.00000975  00000+0 -72901-4 0  9993
2 65453  97.6027 190.1752 0003999  58.3011 301.8602 15.00449100 15100
STARLINK-35059          
1 65454U 25194W   25336.26558999 -.00017790  00000+0 -14146-2 0  9990
2 65454  97.6025 189.7085 0003972  68.4553 291.7094 15.00418562 15072
STARLINK-34728          
1 65455U 25194X   25336.19130070  .00003230  00000+0  22793-3 0  9999
2 65455  97.6041 188.2367 0002347  90.8594 269.2902 15.05652196 14971
STARLINK-35005          
1 65456U 25194Y   25336.13869842  .00003365  00000+0  23730-3 0  9991
2 65456  97.6039 188.3075 0002143  77.8129 282.3337 15.05649866 14977
STARLINK-35076          
1 65457U 25194Z   25336.18576451  .00003700  00000+0  26052-3 0  9991
2 65457  97.6039 188.2444 0002165  82.2945 277.8528 15.05651854 14978
STARLINK-34784          
1 65458U 25195A   25336.22003629  .00045351  00000+0  15326-2 0  9999
2 65458  53.1592 350.7162 0001318 104.6610 255.4537 15.30230613 15078
STARLINK-34867          
1 65459U 25195B   25336.24008601  .00020593  00000+0  70533-3 0  9990
2 65459  53.1619 350.8346 0000984  97.3538 262.7574 15.30206639 15072
STARLINK-34850          
1 65460U 25195C   25336.26435744  .00038531  00000+0  13062-2 0  9990
2 65460  53.1584 350.9856 0001191  75.0383 285.0750 15.30203085 15070
STARLINK-35159          
1 65461U 25195D   25336.25907963  .00041812  00000+0  14146-2 0  9997
2 65461  53.1605 350.9545 0001116 103.0684 257.0441 15.30229571 15077
STARLINK-35180          
1 65462U 25195E   25336.24958176  .00034320  00000+0  11650-2 0  9992
2 65462  53.1607 350.8946 0001075  84.8199 275.2924 15.30214856 15073
STARLINK-35111          
1 65463U 25195F   25336.28007301  .00021049  00000+0  72056-3 0  9994
2 65463  53.1594 350.3727 0001243  90.0986 270.0157 15.30210743 15084
STARLINK-35107          
1 65464U 25195G   25336.27267959  .00017032  00000+0  58544-3 0  9994
2 65464  53.1569 350.3305 0000988  88.6475 271.4639 15.30224002 15083
STARLINK-35169          
1 65465U 25195H   25336.25591404  .00021088  00000+0  72175-3 0  9990
2 65465  53.1598 350.9297 0001370 109.2820 250.8329 15.30215521 15074
STARLINK-35027          
1 65466U 25195J   25336.24641785  .00040319  00000+0  13653-2 0  9991
2 65466  53.1603 350.8733 0001264  89.3567 270.7579 15.30217448 15072
STARLINK-34816          
1 65467U 25195K   25336.26963174  .00023440  00000+0  80105-3 0  9996
2 65467  53.1597 351.0125 0001151  72.0118 288.1008 15.30199351 15071
STARLINK-35033          
1 65468U 25195L   25336.27690504  .00021383  00000+0  73191-3 0  9993
2 65468  53.1588 350.3518 0001395 116.1196 243.9949 15.30203751 15080
STARLINK-34924          
1 65469U 25195M   25336.26330088  .00027944  00000+0  95174-3 0  9995
2 65469  53.1586 350.9792 0001180  73.6667 286.4464 15.30210246 15071
STARLINK-34829          
1 65470U 25195N   25336.22320221  .00034404  00000+0  11675-2 0  9993
2 65470  53.1590 350.7307 0001139  78.2865 281.8263 15.30223977 15074
STARLINK-34888          
1 65471U 25195P   25336.24430546  .00038043  00000+0  12897-2 0  9998
2 65471  53.1602 350.8569 0000830  79.3607 280.7487 15.30208810 15078
STARLINK-34799          
1 65472U 25195Q   25336.26646706  .00038279  00000+0  12966-2 0  9996
2 65472  53.1583 350.9997 0000991  72.8228 287.2882 15.30233946 15055
STARLINK-34762          
1 65473U 25195R   25336.24325455  .00037291  00000+0  12642-2 0  9994
2 65473  53.1612 350.8513 0000893  97.3716 262.7386 15.30216243 15055
STARLINK-34998          
1 65474U 25195S   25336.23058707  .00047394  00000+0  16004-2 0  9998
2 65474  53.1606 350.7719 0001258 113.6372 246.4761 15.30234471 15051
STARLINK-34832          
1 65475U 25195T   25336.25274911  .00015911  00000+0  54804-3 0  9999
2 65475  53.1607 350.9108 0001129  83.5876 276.5253 15.30208809 15054
STARLINK-35098          
1 65476U 25195U   25336.27058172  .00018924  00000+0  64883-3 0  9996
2 65476  53.1591 350.3118 0001423 101.0212 259.0949 15.30229942 15069
STARLINK-35071          
1 65477U 25195V   25336.25696969  .00028018  00000+0  95421-3 0  9994
2 65477  53.1586 350.9341 0000955  54.9012 305.2078 15.30211374 15057
STARLINK-35093          
1 65478U 25195W   25336.22847811  .00038646  00000+0  13090-2 0  9995
2 65478  53.1608 350.7574 0001502  95.3919 264.7254 15.30228809 15059
STARLINK-35096          
1 65479U 25195X   25336.27901590  .00029118  00000+0  99134-3 0  9994
2 65479  53.1579 350.3607 0001028  89.7964 270.3155 15.30202200 15061
STARLINK-35040          
1 65480U 25195Y   25336.24217633  .00022691  00000+0  77694-3 0  9997
2 65480  53.1601 350.8173 0001397  94.5333 265.5828 15.30157415 15054
STARLINK-35042          
1 65481U 25195Z   25336.26118978  .00020469  00000+0  70108-3 0  9996
2 65481  53.1598 350.9617 0001114  57.3506 302.7602 15.30210420 15050
STARLINK-35038          
1 65482U 25195AA  25336.25168975  .00030702  00000+0  10441-2 0  9992
2 65482  53.1601 350.8787 0001092  72.1057 288.0063 15.30212612 15056
STARLINK-35037          
1 65483U 25195AB  25336.23270318 -.00019184  00000+0 -63831-3 0  9991
2 65483  53.1631 350.7585 0001593  61.5550 298.5611 15.30144593 15058
STARLINK-35089          
1 65484U 25195AC  25336.26857126  .00022015  00000+0  75241-3 0  9996
2 65484  53.1582 350.9826 0000617  71.4167 288.6901 15.30234883 15058
STARLINK-35143          
1 65485U 25195AD  25336.27584723  .00005068  00000+0  18310-3 0  9991
2 65485  53.1595 350.3196 0001335  92.6853 267.4301 15.30203260 15067
STARLINK-35226          
1 65492U 25198A   25336.27254395  .00052348  00000+0  13089-2 0  9991
2 65492  53.1616   7.8549 0000514 120.9921 239.1135 15.39637871 13645
STARLINK-35242          
1 65493U 25198B   25336.24013407  .00062626  00000+0  15635-2 0  9995
2 65493  53.1611   8.3724 0001083  72.4885 287.6238 15.39606922 13638
STARLINK-35223          
1 65494U 25198C   25336.25828258  .00020552  00000+0  52213-3 0  9991
2 65494  53.1597   7.7716 0001072  92.0294 268.0834 15.39636029 13643
STARLINK-34446          
1 65495U 25198D   25336.22588961  .00052445  00000+0  13123-2 0  9995
2 65495  53.1603   8.2797 0001984 102.2820 257.8407 15.39615447 13630
STARLINK-35212          
1 65496U 25198E   25336.24932745  .00038029  00000+0  95556-3 0  9994
2 65496  53.1601   7.7112 0000969  90.9942 269.1174 15.39632803 13647
STARLINK-34455          
1 65497U 25198F   25336.28183400  .00050516  00000+0  12641-2 0  9993
2 65497  53.1600   7.9134 0001284  90.5342 269.5810 15.39629027 13649
STARLINK-35203          
1 65498U 25198G   25335.51645988  .00048434  00000+0  12127-2 0  9998
2 65498  53.1598  11.6747 0001275  71.6704 288.4440 15.39630515 13520
STARLINK-35166          
1 65499U 25198H   25336.06852875 -.00427706  00000+0 -11825-1 0  9993
2 65499  53.1611   8.7113 0014693  80.9144 279.3522 15.38061649 13615
STARLINK-35207          
1 65500U 25198J   25336.26756990  .00081106  00000+0  20118-2 0  9993
2 65500  53.1604   7.8215 0001043 121.0661 239.0447 15.39685856 13644
STARLINK-35140          
1 65501U 25198K   25336.08199940  .02236471  00000+0  46517-1 0  9999
2 65501  53.1612   8.8009 0011736 198.6265 161.4313 15.41816700 13610
STARLINK-35114          
1 65502U 25198L   25336.23515725  .00080185  00000+0  19887-2 0  9998
2 65502  53.1604   8.3383 0002310 143.5299 216.5864 15.39693018 13633
STARLINK-35126          
1 65503U 25198M   25335.83207470  .00043579  00000+0  10931-2 0  9996
2 65503  53.1607  10.0853 0001621  71.7871 288.3311 15.39621959 13573
STARLINK-35182          
1 65504U 25198N   25336.24434184  .00181760  00000+0  38781-2 0  9995
2 65504  53.1604   7.6782 0017740 228.5264 131.4220 15.43581616 13646
STARLINK-35072          
1 65505U 25198P   25335.79956866  .00044601  00000+0  11180-2 0  9997
2 65505  53.1601   9.8791 0001269  85.2895 274.8255 15.39632390 13578
STARLINK-35184          
1 65506U 25198Q   25336.23549131  .00063675  00000+0  15890-2 0  9995
2 65506  53.1609   8.3398 0001323  31.8993 328.2092 15.39613065 13639
STARLINK-35163          
1 65507U 25198R   25336.09638023  .00054326  00000+0  13578-2 0  9993
2 65507  53.1593   8.8908 0002403 108.7594 251.3672 15.39634104 13610
